ISS (ZARYA)             
1 25544U 98067A   25277.85315669  .00012686  00000+0  23245-3 0  9997
2 25544  51.6326 123.5365 0000933 203.2133 156.8813 15.49682341532172
CSS (TIANHE)            
1 48274U 21035A   25277.83137610  .00040515  00000+0  46942-3 0  9990
2 48274  41.4644  75.5918 0002234 189.4846 170.5951 15.61045789253268
ISS (NAUKA)             
1 49044U 21066A   25276.49892031  .00013095  00000+0  23997-3 0  9994
2 49044  51.6325 130.2428 0001007 193.4972 166.5990 15.49648180230443
FREGAT DEB              
1 49271U 11037PF  25277.72626596  .00008965  00000+0  16797-1 0  9999
2 49271  51.6260  43.5388 0925494  74.0575 296.0173 12.33646364193411
CSS (WENTIAN)           
1 53239U 22085A   25276.55181324  .00041052  00000+0  47744-3 0  9990
2 53239  41.4641  83.3820 0002124 178.8419 181.2425 15.60943045173848
CSS (MENGTIAN)          
1 54216U 22143A   25276.55181324  .00041052  00000+0  47744-3 0  9991
2 54216  41.4641  83.3820 0002124 178.8419 181.2425 15.60943045158645
SOYUZ-MS 27             
1 63520U 25072A   25276.49892031  .00013095  00000+0  23997-3 0  9990
2 63520  51.6325 130.2428 0001007 193.4972 166.5990 15.49648180 20209
SHENZHOU-20 (SZ-20)     
1 63632U 25082A   25276.55181324  .00041052  00000+0  47744-3 0  9998
2 63632  41.4641  83.3820 0002124 178.8419 181.2425 15.60943045237173
PROGRESS-MS 31          
1 64751U 25146A   25276.49892031  .00013095  00000+0  23997-3 0  9999
2 64751  51.6325 130.2428 0001007 193.4972 166.5990 15.49648180  6750
TIANZHOU-9              
1 64786U 25149A   25276.55181324  .00041052  00000+0  47744-3 0  9993
2 64786  41.4641  83.3820 0002124 178.8419 181.2425 15.60943045  5111
CREW DRAGON 11          
1 65077U 25166A   25276.49892031  .00013095  00000+0  23997-3 0  9993
2 65077  51.6325 130.2428 0001007 193.4972 166.5990 15.49648180  2141
DRAGON CRS-33           
1 65304U 25186A   25276.49892031  .00013095  00000+0  23997-3 0  9998
2 65304  51.6325 130.2428 0001007 193.4972 166.5990 15.49648180   119
PROGRESS-MS 32          
1 65586U 25204A   25276.49892031  .00013095  00000+0  23997-3 0  9991
2 65586  51.6325 130.2428 0001007 193.4972 166.5990 15.49648180   571
CYGNUS NG-23            
1 65616U 25208A   25276.49892031  .00013095  00000+0  23997-3 0  9999
2 65616  51.6325 130.2428 0001007 193.4972 166.5990 15.49648180   227
1998-067XH              
1 65729U 98067XH  25277.82759169  .00088855  00000+0  13330-2 0  9994
2 65729  51.6314 123.3678 0002684 105.6082 254.5205 15.54158263  2390
1998-067XJ              
1 65730U 98067XJ  25276.59852349  .00184864  00000+0  25664-2 0  9993
2 65730  51.6315 129.4105 0002546 254.3381 105.7329 15.55865895  2207
